ONEWEB-0709             
1 55172U 23004AJ  24139.51702540 -.00000188  00000+0 -56787-3 0  9996
2 55172  87.8976 172.2389 0003178  86.5103 273.6388 13.11296631 66317
ONEWEB-0710             
1 55173U 23004AK  24139.08251218  .00000031  00000+0  47090-4 0  9993
2 55173  87.9166 157.1823 0002169  86.9457 273.1922 13.17650324 67487
ONEWEB-0711             
1 55174U 23004AL  24139.48857194 -.00000151  00000+0 -46072-3 0  9996
2 55174  87.8973 172.2141 0001499  68.8156 291.3132 13.11415270 66278
ONEWEB-0713             
1 55175U 23004AM  24139.12547380 -.00000372  00000+0 -10857-2 0  9997
2 55175  87.8976 172.2938 0001794  85.3604 274.7729 13.11341962 66202
ONEWEB-0715             
1 55176U 23004AN  24138.81525196 -.00000500  00000+0 -14481-2 0  9994
2 55176  87.8976 172.3551 0001783  91.9975 268.1357 13.11361257 66200
ONEWEB-0716             
1 55177U 23004AP  24138.77244973  .00000054  00000+0  10524-3 0  9998
2 55177  87.9169 157.2346 0001997  97.2359 262.8999 13.17649314 67441
ONEWEB-0717             
1 55178U 23004AQ  24139.05877933  .00000076  00000+0  16354-3 0  9990
2 55178  87.9166 157.1429 0002044  62.7541 297.3798 13.17650337 67531
ONEWEB-0719             
1 55179U 23004AR  24138.76612043  .00000062  00000+0  12708-3 0  9991
2 55179  87.9167 157.1871 0001737  94.9471 265.1859 13.17650269 67446
ONEWEB-0530             
1 55796U 23029A   24139.32559758  .00000065  00000+0  12852-3 0  9992
2 55796  87.9218  65.6631 0001671  63.3356 296.7949 13.20774585 61552
ONEWEB-0534             
1 55797U 23029B   24139.54023769  .00000040  00000+0  66311-4 0  9998
2 55797  87.9219  65.6274 0001904  85.6352 274.4999 13.20773538 61565
ONEWEB-0556             
1 55798U 23029C   24138.56171907  .00000043  00000+0  74777-4 0  9996
2 55798  87.9217  65.8158 0001086  88.9105 271.2152 13.20773817 61432
ONEWEB-0562             
1 55799U 23029D   24138.54909477  .00000053  00000+0  98828-4 0  9990
2 55799  87.9218  65.8085 0001121  50.9161 309.2072 13.20772814 61422
ONEWEB-0563             
1 55800U 23029E   24138.54278544  .00000011  00000+0 -53475-5 0  9992
2 55800  87.9218  65.8248 0001674  84.6862 275.4463 13.20773314 60738
ONEWEB-0564             
1 55801U 23029F   24138.53646506  .00000054  00000+0  99780-4 0  9993
2 55801  87.9218  65.8110 0001856  67.3848 292.7482 13.20773414 60746
ONEWEB-0638             
1 55802U 23029G   24139.35698747  .00000296  00000+0  76492-3 0  9991
2 55802  87.8959  80.9373 0001540  99.0853 261.0451 13.14505086 60280
ONEWEB-0639             
1 55803U 23029H   24138.89274714  .00000088  00000+0  18770-3 0  9998
2 55803  87.9136  96.2816 0003031 109.5207 250.6254 13.19727775 58624
ONEWEB-0640             
1 55804U 23029J   24139.21426815  .00000382  00000+0  99578-3 0  9999
2 55804  87.8957  80.9623 0001657 107.5579 252.5731 13.14503290 60255
ONEWEB-0641             
1 55805U 23029K   24138.81220120  .00000094  00000+0  20350-3 0  9998
2 55805  87.9132  96.2808 0002264  90.4478 269.6914 13.19727014 58627
ONEWEB-0642             
1 55806U 23029L   24139.41398421  .00000080  00000+0  16815-3 0  9992
2 55806  87.9136  96.1821 0002948  99.8464 260.3001 13.19728731 59389
ONEWEB-0643             
1 55807U 23029M   24138.80354116 -.00000455  00000+0 -12625-2 0  9990
2 55807  87.8955  81.0206 0003071  86.3651 273.7830 13.14503228 59492
ONEWEB-0644             
1 55808U 23029N   24139.18180603  .00000051  00000+0  93851-4 0  9993
2 55808  87.9138  96.2239 0002581  94.2661 265.8767 13.19726032 59356
ONEWEB-0645             
1 55809U 23029P   24138.64711234  .00000074  00000+0  15134-3 0  9996
2 55809  87.9136  96.3321 0002146 100.5991 259.5383 13.19724031 58598
ONEWEB-0646             
1 55810U 23029Q   24139.35948955  .00000151  00000+0  34585-3 0  9996
2 55810  87.9135  96.1898 0002345  87.0171 273.1230 13.19725418 59365
ONEWEB-0648             
1 55811U 23029R   24139.22853901  .00000158  00000+0  39058-3 0  9996
2 55811  87.8961  80.9068 0002638 105.8202 254.3218 13.14501823 60266
ONEWEB-0649             
1 55812U 23029S   24139.39819949  .00000164  00000+0  37735-3 0  9996
2 55812  87.9134  96.1787 0002383  95.6439 264.4965 13.19725366 59402
ONEWEB-0650             
1 55813U 23029T   24139.39345595  .00000113  00000+0  25061-3 0  9991
2 55813  87.9135  96.1806 0002408  88.7781 271.3627 13.19726789 59375
ONEWEB-0652             
1 55814U 23029U   24139.20950636  .00000355  00000+0  92191-3 0  9996
2 55814  87.8960  80.9227 0001907  77.7177 282.4166 13.14506110 60214
ONEWEB-0653             
1 55815U 23029V   24138.58471362 -.00000927  00000+0 -25352-2 0  9992
2 55815  87.8957  81.0262 0001564  84.8444 275.2864 13.14497592 59471
ONEWEB-0654             
1 55816U 23029W   24139.34112343  .00000018  00000+0  14607-4 0  9991
2 55816  87.8957  80.8865 0001682  70.9040 289.2272 13.14501155 60287
ONEWEB-0656             
1 55817U 23029X   24139.21196406  .00000160  00000+0  36118-3 0  9998
2 55817  87.9220  65.6187 0002103  61.3446 298.7899 13.20773327 61519
ONEWEB-0657             
1 55818U 23029Y   24139.38872018  .00000185  00000+0  42937-3 0  9990
2 55818  87.9136  96.1868 0002602  65.3040 294.8363 13.19725623 59377
ONEWEB-0658             
1 55819U 23029Z   24138.92908146  .00000061  00000+0  11994-3 0  9994
2 55819  87.9134  96.2143 0002595  94.3155 265.8275 13.19727388 58642
ONEWEB-0660             
1 55820U 23029AA  24139.31892373 -.00000021  00000+0 -91901-4 0  9999
2 55820  87.8957  80.8657 0001951  97.5995 262.5356 13.14500780 60284
ONEWEB-0661             
1 55821U 23029AB  24139.35382478  .00000282  00000+0  72726-3 0  9994
2 55821  87.8958  80.9253 0001777  95.9319 264.2013 13.14505066 60255
ONEWEB-0662             
1 55822U 23029AC  24139.54094811 -.00000032  00000+0 -12120-3 0  9994
2 55822  87.8959  80.8959 0002095  93.7641 266.3729 13.14504938 60341
ONEWEB-0663             
1 55823U 23029AD  24139.20530356  .00000171  00000+0  38814-3 0  9997
2 55823  87.9221  65.6810 0002051  93.5442 266.5926 13.20783742 61500
ONEWEB-0664             
1 55824U 23029AE  24138.74478976  .00000088  00000+0  18545-3 0  9991
2 55824  87.9220  65.7855 0001460  84.1566 275.9733 13.20770983 60766
ONEWEB-0665             
1 55825U 23029AF  24139.35063397  .00000272  00000+0  69920-3 0  9995
2 55825  87.8957  80.9010 0001949  92.9690 267.1663 13.14506177 60278
ONEWEB-0666             
1 55826U 23029AG  24138.73849052  .00000100  00000+0  21377-3 0  9991
2 55826  87.9219  65.7775 0001982  67.3914 292.7428 13.20774089 60776
ONEWEB-0667             
1 55827U 23029AH  24139.18671657  .00000116  00000+0  25411-3 0  9996
2 55827  87.9220  65.6221 0001798  89.8011 270.3329 13.20773690 61507
ONEWEB-0669             
1 55828U 23029AJ  24138.72745013  .00000156  00000+0  35064-3 0  9993
2 55828  87.9218  65.7512 0001422  59.6745 300.4528 13.20770847 60766
ONEWEB-0670             
1 55829U 23029AK  24138.56726467 -.00000128  00000+0 -37867-3 0  9992
2 55829  87.8961  81.0618 0001599  96.6528 263.4784 13.14505975 60194
ONEWEB-0671             
1 55830U 23029AL  24138.62107694  .00000060  00000+0  11705-3 0  9992
2 55830  87.9134  96.3386 0001905  92.4956 267.6395 13.19726740 58584
ONEWEB-0672             
1 55831U 23029AM  24139.32876137  .00000101  00000+0  21702-3 0  9990
2 55831  87.9218  65.6152 0002050  70.6646 289.4709 13.20774106 61524
ONEWEB-0673             
1 55832U 23029AN  24139.43136530  .00000120  00000+0  26854-3 0  9993
2 55832  87.9134  96.1446 0002001  92.3180 267.8182 13.19728015 59402
ONEWEB-0674             
1 55833U 23029AP  24139.22061043  .00000249  00000+0  63811-3 0  9993
2 55833  87.8958  80.9387 0001455  92.2775 267.8521 13.14505775 60255
ONEWEB-0675             
1 55834U 23029AQ  24138.91643463 -.00000285  00000+0 -74410-3 0  9990
2 55834  87.9135  96.2788 0002461  78.8541 281.2868 13.19725798 58646
ONEWEB-0720             
1 55835U 23029AR  24139.13599463  .00000256  00000+0  60684-3 0  9990
2 55835  87.9139  96.2361 0002332  96.8309 263.3089 13.19726387 59289
ONEWEB-0537             
1 56046U 23043A   24139.37699065  .00000014  00000+0  19400-5 0  9990
2 56046  87.9133  20.0158 0002034  73.2167 286.9186 13.16594277 59891
ONEWEB-0538             
1 56047U 23043B   24139.21866213  .00000114  00000+0  26360-3 0  9997
2 56047  87.9132  20.0664 0002120  83.5708 276.5664 13.16594905 59887
ONEWEB-0546             
1 56048U 23043C   24138.67401775  .00000078  00000+0  17002-3 0  9997
2 56048  87.9135  20.1379 0002062  55.7771 304.3555 13.16595013 58891
ONEWEB-0547             
1 56049U 23043D   24138.95392161  .00000117  00000+0  25254-3 0  9999
2 56049  87.9317  35.3076 0002387  80.6365 279.5039 13.21827892 57799
ONEWEB-0548             
1 56050U 23043E   24139.15532343  .00000096  00000+0  21637-3 0  9999
2 56050  87.9136  20.0859 0001277  90.6365 269.4912 13.16592398 59860
ONEWEB-0549             
1 56051U 23043F   24139.17312205  .00000091  00000+0  18991-3 0  9999
2 56051  87.9315  35.2642 0001973  83.1790 276.9568 13.21828520 58730
ONEWEB-0550             
1 56052U 23043G   24139.16049485  .00000102  00000+0  21657-3 0  9992
2 56052  87.9314  35.2756 0001717  84.8411 275.2919 13.21827515 58735
ONEWEB-0551             
1 56053U 23043H   24138.73406144  .00000101  00000+0  23377-3 0  9994
2 56053  87.9057  50.5635 0002091  84.8687 275.2682 13.15547973 56417
ONEWEB-0552             
1 56054U 23043J   24138.70001810 -.00000017  00000+0 -73517-4 0  9993
2 56054  87.9313  35.3771 0001772  90.6387 269.4950 13.21827437 57767
ONEWEB-0553             
1 56055U 23043K   24139.36432118  .00000081  00000+0  17756-3 0  9997
2 56055  87.9135  20.0333 0001904  68.8324 291.3010 13.16597838 59902
ONEWEB-0554             
1 56056U 23043L   24139.42764768  .00000074  00000+0  15977-3 0  9999
2 56056  87.9136  20.0413 0001267  96.4482 263.6793 13.16594070 59890
